SUPPLIER_ADRESS_ID,POSTCODE,CITY,COUNTRY
CZ47,4875,Dobdoban,TH
RQ81,3288,Tsaghkahovit,MK
VT59,5205,Yelizovo,NG
RN41,4045,Gaohong,TR
PW06,1647,Farah,IT
SK05,4175,Breves,PK
TG70,3158,Necochea,SE
AR11,1620,Protvino,NL
CG23,2193,Borovskoy,GR
DP55,2155,Sanli,VE
XL89,2628,Sondo,CU
ZD21,5118,Mangarine,MD
FP42,3627,Gaotuo,MQ
FT67,5244,Cambuga,PL
YK94,1427,Liliba,BY
IG12,3183,Tuoshi,HN
FK26,1477,Sukoreno,KZ
MT48,1767,Khanabad,NZ
UT27,4191,Qitao,AR
VJ54,2826,Changliu,TR
PY88,3613,Huangjiazhai,PK
OS37,1299,Viradouro,CI
YN21,4533,Silago,BR
ZO38,1509,Sidomulyo,CI
LB68,2004,Bagumbayan,SY
XI84,3581,Ursus,MX
OR49,1562,Orodo,AU
PZ16,2041,Austin,RU
UM76,3366,Vientiane,ID
MN59,5374,Rongxi,AM
RI92,4191,Qitao,AR
XM56,3013,Cibeureum,NL
VL74,2290,Solok,US
ME11,3090,Phoenix,HR
HQ46,4086,Toledo,CN
AL63,1635,Honoria,PK
TG65,1512,Shuicha,UG
PN02,1472,Langkaplancar,MM
UY67,2473,Mostovskoy,CA
NN34,3478,Boulaide,AM
SJ49,4643,Cheping,BR
EC70,2898,Nyandoma,FI
CG17,1811,Babakan,CI
LA60,3449,Waldbredimus,NL
JP34,3402,Tignoan,CI
ZB75,3958,Luhanka,UA
LO48,3604,Ruse,MM
BJ58,4872,Stupsk,IN
RQ69,4494,Zhengwan,ID
TB93,1311,Plovdiv,PH
HE26,5380,Pizhanka,FI
CS81,3441,Eldoret,KZ
KR12,3267,Huangsha,CN
PF84,5165,Muskegon,PL
KJ51,2453,Trondheim,SE
GY91,2136,Dajin,NL
KZ75,4292,Vaitogi,FI
DW77,3250,Chaplygin,NG
HR99,5125,Changting,LT
AW15,2404,Suining,CU
LI95,3114,Panzhuang,KZ
CX68,1335,Bianba,MN
AJ31,1751,Bacong,PE
OZ76,4905,Ossora,MX
TR57,3745,Fonadhoo,UG
YY70,2689,Huangyang,RU
JS34,4723,Gunziying,MN
AO88,2125,Sotnikovskoye,VE
RK11,2708,Nangkasari,VN
WD46,1505,Kanluran,UK
PN47,4571,Nan,GR
WJ83,4974,Kramfors,MQ
MJ62,3762,Tekeli,YE
VZ56,4989,Chimichagua,VN
QC02,4575,Warnes,GR
HW40,5335,Kemang,PL
YM65,4140,Lijia,HN
HB90,3111,Kanbe,TN
NP90,2194,Huangtian,MN
JU82,3046,Cipesing,CI
QC45,5226,Bulgan,MX
QD52,3234,Shilipu,NZ
KF63,2779,Dolores,AM
YL28,2297,Guandu,UA
ZL67,4479,Nekrasovka,HN
LD10,3820,Bagacay,FR
NI02,2297,Guandu,UA
XN07,2524,Bongao,GR
QL87,1127,Riangkroko,PL
MZ83,3210,Rancharia,LT
GL81,3371,Langsepan,UK
TJ39,1314,Liji,GR
WW47,3422,Dologon,FR
NU32,2641,Shanguang,PK
UT87,1175,Altos,PE
MO44,3767,Kostinbrod,MM
UH86,4494,Zhengwan,ID
CC06,5069,Limoges,UY
LP40,5069,Limoges,UY
FS52,3438,Gitega,GR
YD04,1509,Sidomulyo,CI
OS37,2295,Calasgasan,KW
RH35,5206,Charlestown,PL
OX01,4622,Wotan,FR
RK50,4285,Singgugu,CU
GO13,3739,Newton,AM
LO97,4807,Andalan,RU
PO73,5271,Taytayan,BR
GN80,4735,Messejana,SY
YI81,1215,Longquan,PL
ZL52,5322,Ariana,CU
UE67,5212,Lephalale,TN
UJ03,1271,Smolenka,US
OX93,3293,Xingxi,MN
LS10,4845,Tiexi,FR
IO02,2361,Alvesta,AM
HG37,2687,Kiarajangkung,AR
LP18,1369,Daguma,AR
GQ57,5137,Tambaksari,GR
CE40,4246,Jingmen,TR
DV72,4052,Praya,PK
EM95,2847,Amiens,VN
DH55,2992,Ngetkib,KZ
JG65,1255,Langgen,CN
TU65,4933,Ouidah,VE
DS43,4460,Nankou,CD
WV83,1710,Yorosso,VN
KN96,4490,Blois,US
GO82,1233,Danderyd,BY
CX64,2275,Mama,KW
ZN10,4243,Mentaras,FI
ES14,4662,Ufa,UK
WW87,3824,Zaliztsi,SY
FL69,2603,Tanahbeureum,CN
KV07,3205,Kurchatov,AR
WV36,3013,Cibeureum,NL
AF43,4206,Darmasari,MG
QG59,5308,Denver,AM
VY69,2125,Sotnikovskoye,VE
YJ18,5380,Pizhanka,FI
VO10,3962,Wonorejo,UY
XW88,2813,Napoles,UY
DZ06,5037,Langchi,TN
AN42,5060,Urrao,CN
UP90,1566,Falun,TR
YH88,1936,Tateyama,CI
HB26,4771,Palhais,YE
KJ86,5128,Songgai,AR
MZ01,3961,Chuoyuan,RU
NZ21,5127,Kraczkowa,IN
YQ94,3526,Wutongkou,AU
OO40,2242,Buga,ID
HR28,2413,Jargalant,HN
PG61,1551,Quezalguaque,AR
WQ18,4208,Shancheng,RU
PW35,3426,Gananoque,RU
XJ86,3510,Quma,AM
ZK03,3998,Xiaqiao,US
UK96,4134,Potelych,TZ
XJ35,1307,Tantamayo,BR
QA50,2436,Tlogosadang,PL
DT76,4362,Mariscala,UG
GH19,1361,Ylitornio,TN
HO98,2524,Bongao,GR
JK08,3696,Eling,FR
KF54,3323,Lianpeng,AU
LV31,4289,Vyksa,TR
EV01,3650,Giade,AM
CC88,1156,Roriz,PL
UJ67,4252,Angasmarca,TN
QO58,4645,Zhongguan,MK
LN14,2507,Changhao,MK
JY04,4883,Gyumri,FR
SD71,3149,Shanlian,MX
LR26,4207,Narach,YE
CY35,2004,Bagumbayan,SY
BV76,3823,Houston,IT
EC21,2869,Vuokatti,MM
BX57,2687,Kiarajangkung,AR
XZ74,4100,Yehud,FI
DA32,2783,Savonranta,BR
GG92,3609,Cilongkrang,IN
IB59,4892,Charlotte,US
BJ86,3375,Baloc,BR
XF41,3397,Ngudu,MD
HF50,3062,Mizunami,GR
VM36,2505,Kudus,IT
BT07,3286,Chignayhua,NL
XJ35,5112,Kundung,FR
AW55,5157,Dongsheng,UG
BI56,4623,Marseille,US
OB42,5048,Vylkove,MQ
WB63,3739,Newton,AM
PS50,3595,Madrid,PK
WS23,2232,Amphawa,LT
NY19,5031,Mikhaylovsk,CI
AM71,2928,Paombong,NZ
BO99,4248,Chapultepec,ID
HK82,1344,Erpeldange,NZ
EX77,3627,Gaotuo,MQ
FK45,3149,Shanlian,MX
CX58,3678,Brondong,RU
QB88,3603,Pavlovka,MN
ZF54,2956,Palermo,PE
CY26,3270,Tangzhuang,TR
ME79,1836,Lingdi,IN
VK41,3654,Dongtundu,MD
LP98,3013,Cibeureum,NL
CP62,4112,Guanting,UY
ON97,5311,Calaya,PL
BA05,5082,Jingguan,CI
BE68,1666,Pacar,AR
ME86,2386,Akashi,TN
MH62,2273,Melres,SE
PX98,1179,Huangjinjing,UA
TH72,5133,Nianqiao,NL
NG25,3051,Paipu,IN
AL81,5185,Poja,KW
OP63,4853,Angono,MK
VJ40,3885,Cabean,US
IL69,1335,Bianba,MN
EU84,3742,Kurmuk,FI
BF82,3109,Beishidian,AR
KM19,2800,Karanganyar,VN
RU16,2087,Marolambo,LT
BP11,3755,Gondang,PH
FK74,2153,Babica,TN
LU72,3295,Boyarka,PL
BR46,1524,Glugu,TR
CO09,1544,Hujigou,ID
EQ79,2686,Succha,KW
HY56,1551,Quezalguaque,AR
RT23,1956,Jindui,UY
II21,2617,Thamaga,MN
ZX50,3119,Visby,KZ
FP81,3609,Cilongkrang,IN
NW89,4749,Ortiga,IN
XR58,1878,Haokou,AM
CK49,1878,Haokou,AM
EG46,2538,Wuda,CA
OV94,2429,Tysmenychany,AM
SU08,4677,Hengling,UK
QH42,1924,Wysoka,VN
FU28,4173,Paritaman,YE
PN80,4292,Vaitogi,FI
ZP26,4266,Gununglarang,UK
BB91,1324,Sizao,HR
BS57,2413,Jargalant,HN
KS35,3411,Mangochi,NG
QU19,3178,Kalnibolotskaya,HN
CA93,4822,Timaru,LT
EV60,5415,Yauca,HR
VY91,1260,Mathambgwane,MD
UU82,1911,Sibucao,PE
UP35,2428,Sundbyberg,FI
DO84,5335,Kemang,PL
YY73,1127,Riangkroko,PL
HC24,1936,Tateyama,CI
GN82,2905,Tashang,UG
KC02,4042,Leye,BY
YE16,3710,Sanbao,TN
TX68,4777,Tyarlevo,SE
CL59,5262,Adjumani,MD
PT23,1806,Luobei,BY
FX76,3343,Malaga,BR
GO12,4853,Angono,MK
QX82,2141,Xinbu,MD
BM27,1483,Zhufo,PE
WM49,1179,Huangjinjing,UA
IU97,5347,Sotouboua,IT
JS50,5144,Araal,IT
EJ75,1623,Bologoye,CI
OQ95,4191,Qitao,AR
XO26,5304,Xishui,TN
PB36,2875,Isyangulovo,CU
YJ90,3642,Atibaia,CA
GT75,5374,Rongxi,AM
SN65,3280,Zhangfeng,HR
BZ33,1541,Kasturi,TN
NS44,3220,Awka,LT
NV64,3760,Azenha,UG
WK47,3285,Konosha,PK
YU89,1127,Riangkroko,PL
MX58,3423,Balayan,PL
VW66,2295,Calasgasan,KW
ZL20,2262,Dashi,AM
MM72,2635,Gongnong,SE
PU92,1450,Sale,MX
JO66,1634,Kajatian,AR
FV09,2204,Boucinhas,BY
LC53,2922,Ganding,YE
OG94,3063,Kitango,PL
FV20,4772,Xinba,KZ
MQ77,2194,Huangtian,MN
KU90,3892,Weton,BR
HR73,3274,Kakanj,KW
LI10,2590,Kedungwringin,UY
CR12,3451,Liloan,PK
CJ05,3937,Tabira,TH
RK53,1811,Babakan,CI
DE32,3478,Boulaide,AM
PB97,4391,Hagerstown,TR
HV10,3941,Yangyuan,BR
LY02,4251,Pajannangger,UG
PP53,2066,Mawa,ID
WD17,2193,Borovskoy,GR
RD08,4042,Leye,BY
PO34,2020,Aricagua,FI
TQ78,3778,Qianjia,YE
QF83,2574,Ubud,HN
DJ10,2290,Solok,US
GU20,1307,Tantamayo,BR
QU01,3618,Asia,MM
WM80,4421,Xinghua,MK
MA01,3029,Kotauneng,BY
IK12,2524,Bongao,GR
KR72,4172,Laibin,BR
VJ14,1427,Liliba,BY
XK49,1344,Erpeldange,NZ
MX77,2726,Daba,CA
LM86,2010,Chelu,CU
HK07,3918,Hermanus,AU
BZ07,3611,Pineleng,KZ
VI06,2850,Kihangara,KZ
TN14,1792,Meixian,TZ
TY85,3958,Luhanka,UA
VJ29,1253,Pacasmayo,BR
KR13,2885,Dongbian,GR
OL91,3735,Bolekhiv,CD
TG95,4042,Leye,BY
FG85,1344,Erpeldange,NZ
KW83,5165,Muskegon,PL
OE56,5118,Mangarine,MD
XA74,1261,Lubochnia,PK
UJ97,3249,Tucdao,KW
YY28,2863,Mococa,IN
KP07,2440,Otradnyy,BR
JW42,2453,Trondheim,SE
IM65,2041,Austin,RU
NI83,1741,Shiguai,BY
NU51,3575,Xinshi,TR
RE53,3923,Khadyzhensk,PH
SH27,4901,Xinhe,FI
QQ85,3205,Kurchatov,AR
WO85,2119,Neepawa,CD
QN53,4202,Srednebelaya,CD
ZV34,5127,Kraczkowa,IN
YG19,1191,Buturlinovka,NZ
KD22,1944,Wanganui,VE
GW00,2416,Atlanta,KW
OU53,4460,Nankou,CD
ZG06,2022,Yushugou,ID
JR54,5173,Alapayevsk,US
HN38,2731,Atami,PL
RG47,3452,Nglorogan,CA
OU92,5410,Zliv,RU
HD92,4772,Xinba,KZ
EM34,4986,Buzdyak,PH
TT21,3109,Beishidian,AR
DC64,1731,Bobrov,MD
IK23,4571,Nan,GR
CX50,1144,Sallins,CU
JE86,2026,Yukuhashi,FR
NC00,1293,Zuoxi,BY
ZK30,2193,Borovskoy,GR
PQ00,1886,Simpang,YE
OD20,4729,Guishan,CU
KD10,3293,Xingxi,MN
WO54,1260,Mathambgwane,MD
EI07,1818,Fucha,NG
VH95,1179,Huangjinjing,UA
SN15,4215,Dazhongzhuang,PE
VF63,3089,Ubrub,MQ
PT33,1560,Gorzkowice,PK
RB73,4099,Dulian,TZ
PP92,2064,Yartsevo,HN
LD86,5208,Xiongzhou,UK
HP19,2245,Kimberley,VE
KK73,2176,Liyuan,NZ
UK67,1273,Mandala,PK
BH58,1643,Obikiik,UK
WF78,1299,Viradouro,CI
AW67,1551,Quezalguaque,AR
FA33,5216,Lindavista,TZ
SM01,3172,Placer,FR
PE93,2497,Kybartai,NG
EL97,3277,Liqiao,TH
NK99,4590,Jamalteca,MK
JI90,3709,Safi,PK
IC17,2085,Kinna,BR
RA62,5216,Lindavista,TZ
PV40,3411,Mangochi,NG
PP08,4905,Ossora,MX
DL84,1899,Obolensk,PK
YT48,2315,Pleshanovo,VN
VK57,2861,Senduro,ID
HE47,3037,Mozhga,IT
AU80,2903,Sarangmeduro,PL
VC86,4509,Cotabambas,BY
IR93,3894,Jinja,VE
RG62,3241,Vavuniya,NG
VB66,3803,Kuantian,PL
EH64,5170,Jinshan,CD
TK64,4989,Chimichagua,VN
OC52,4349,Bedayutalang,MQ
FC84,1593,Karlskoga,MN
YM18,2155,Sanli,VE
UN58,1634,Kajatian,AR
FZ67,2667,Nazarje,UY
AZ44,2095,Infonavit,UK
QY76,2879,Lanckorona,FR
DA72,5412,Shuren,AM
TX15,2689,Huangyang,RU
YO95,3208,Xiayang,PE
WP46,1209,Vidin,UY
LF56,1895,Podwilk,US
BG37,1127,Riangkroko,PL
LC37,4875,Dobdoban,TH
NB70,3247,Caen,TZ
FQ65,3829,Lityn,US
GU32,3609,Cilongkrang,IN
DG93,1830,Coyaima,MD
NK86,1180,Sartana,CN
EK76,2357,Baishuiyang,IN
BI20,2507,Changhao,MK
VA95,3829,Lityn,US
AT70,2574,Ubud,HN
AA89,1397,Qincheng,CU
CJ81,2415,Cornwall,GR
TF75,5271,Taytayan,BR
QK54,4156,Potou,MN
SR06,3134,Shilovo,TN
KR13,2495,Changjiang,RU
NR76,3148,Gornyak,US
AX96,3642,Atibaia,CA
CA81,4540,Nedryhayliv,BR
OT69,1464,Telsen,LT
ZZ40,4577,Pyatigorskiy,AR
HC23,4173,Paritaman,YE
YE07,2436,Tlogosadang,PL
SE54,1637,Fengli,MM
YX09,1255,Langgen,CN
GP95,3457,Xinpo,TN
TX60,4089,Strogino,PH
ZJ09,2631,Ferbane,VN
VS62,3661,Bulusari,PL
SW95,2723,Agboville,BR
GQ73,1560,Gorzkowice,PK
GD65,4590,Jamalteca,MK
HM66,2477,Huaizhong,VN
DE79,2538,Wuda,CA
HP96,2847,Amiens,VN
AX37,5157,Dongsheng,UG
KI47,2410,Przywidz,AR
KD57,3261,Orikum,MD
GS74,3947,Muli,VN
PO68,2163,Vis,PH
WF68,3325,Fengting,MK
BP51,3323,Lianpeng,AU
OD47,1669,Naji,AU
FZ34,3594,Samir,MM
BF82,2453,Trondheim,SE
BW19,4040,Yangzhen,CU
JA13,4334,Pavlovskaya,TH
MU13,2664,Jacksonville,CU
LU35,2573,Jeong,VN
RI04,5228,Shajing,TZ
OB25,1852,Dingli,ID
KD38,1934,Qiganjidie,BR
EB47,2794,Chikwawa,TN
XV82,3173,Granja,CU
AF56,3415,Shcherbinka,MX
QF48,3063,Kitango,PL
CS15,1894,Heping,MG
QW89,2651,Kudanding,CN
UF09,2477,Huaizhong,VN
VM77,3982,Vranje,AR
AM31,2531,Dongxiang,MK
LO22,5317,Lamas,PH
KL18,4192,Amga,YE
OT28,1931,Tanjungbatu,TR
ME42,2129,Nnewi,VE
QE75,4118,Vostochnyy,LT
DG62,3115,Garnich,VE
MS32,5170,Jinshan,CD
TX27,4202,Srednebelaya,CD
PO22,2861,Senduro,ID
WP11,4769,Lianhua,FI
IJ17,4045,Gaohong,TR
WZ44,5178,Reno,MK
PH10,4154,Kuybyshev,NG
TY63,1478,Guohe,KZ
PK15,4134,Potelych,TZ
QM60,4870,Sambonggede,UA
JI15,4168,Petong,IT
BD43,5157,Dongsheng,UG
OJ70,4043,Twardawa,KW
ER62,4508,Barras,VE
AF82,2112,Kiten,NL
FI27,4992,Ornontowice,VE
EQ00,2677,Wangzuizi,TH
BL53,3778,Qianjia,YE
QL99,2878,Bolinao,CI
RZ98,5365,Heihe,FR
SS18,4597,Blora,BR
IF23,5041,Leuwihalang,BR
GF77,2033,Babakantonggoh,CD
BN93,4181,Shenwan,TR
NG04,5082,Jingguan,CI
MB82,2397,Durham,VE
NN01,4278,Belfort,YE
RO92,3812,Huangtugang,FR
UH11,1557,Milano,CA
CK16,1740,Tiron,ID
HE32,3755,Gondang,PH
KR22,2739,Brooklyn,CU
VO56,2453,Trondheim,SE
AH58,1414,Koumra,PE
LE04,4239,Rashaant,AR
LU21,1864,Senlis,PK
OD10,3234,Shilipu,NZ
MB87,2054,Tashanta,VN
XL00,4942,Independencia,PL
JY51,3023,Aganan,MQ
CW34,2058,Liuxiang,CN
AL86,2048,Boavista,UY
IL19,4238,Jiebu,HN
AE33,4877,Sukamenak,IN
QO93,2780,Lomba,CN
AT93,3816,Talibura,FI
MN95,2325,Guamal,HR
DY98,4304,Mobara,FR
NP51,3779,Bacnotan,PL
VB02,2631,Ferbane,VN
KS54,3325,Fengting,MK
OB71,1126,Georgiyevskaya,ID
GW43,2731,Atami,PL
NI98,5113,Ivouani,CA
SV81,3178,Kalnibolotskaya,HN
RI66,5116,Jinqiao,IN
RO15,5193,Karangpocok,BR
EH52,3072,Detroit,KW
UJ83,3806,Uyskoye,MN
MV73,1261,Lubochnia,PK
LR71,3090,Phoenix,HR
WV64,3581,Ursus,MX
BC69,1822,Tarata,FR
JQ97,5032,Dainan,KW
FC08,2241,Anseong,KZ
XK94,2033,Babakantonggoh,CD
PK33,3896,Gabi,VN
QZ44,4278,Belfort,YE
AM90,1399,Dushanbe,NZ
CZ30,3272,Kunda,PE
HI12,4965,Bambakashat,RU
VG37,5118,Mangarine,MD
XP16,2055,Puhja,AM
AB30,4533,Silago,BR
FF85,1169,Xiangtan,YE
SC67,2449,Dzerzhinsk,ID
YX01,2066,Mawa,ID
MW45,3004,Shanga,MD
WP52,5173,Alapayevsk,US
QA68,3565,Chicago,UK
RK84,1289,Bezlyudivka,MN
JC20,3711,Retenggoma,MX
JA35,4378,Sacramento,TN
WT02,3998,Xiaqiao,US
NS77,1343,Tambo,HR
IZ60,3829,Lityn,US
OP17,4118,Vostochnyy,LT
IK32,4388,Matoupu,KW
PB13,3307,Tunal,TZ
HY21,2794,Chikwawa,TN
NK20,1513,Taclobo,KW
WY76,2738,Budva,HR
YV76,2781,Lhabupu,SE
DI00,3397,Ngudu,MD
SP71,3666,Wenchang,MQ
DS93,2004,Bagumbayan,SY
PG87,2275,Mama,KW
IU36,4047,Rejoagung,HR
OH85,1290,Taremskoye,KW
VP75,4962,Huqiu,YE
LD51,1808,Semiluki,MK
UQ04,3504,Debesy,MN
VS38,3169,Ningxin,BY
PA73,2384,Mirotice,RU
CH91,4214,Maubasa,UA
SB35,1549,Prengtale,AU
KU50,5144,Araal,IT
FR35,3823,Houston,IT
VX90,1965,Pumaqangtang,NZ
PN10,1218,Gornorechenskiy,GR
BB49,3706,Mungkin,US
ON04,4156,Potou,MN
TY03,3583,Lunenburg,CU
YC68,5130,Jaen,MK
RA84,3208,Xiayang,PE
YU61,3696,Eling,FR
AQ21,1635,Honoria,PK
BY86,3327,Jingxi,SE
NO65,2651,Kudanding,CN
CU28,2309,Oeiras,UG
AF69,2351,Siguqiao,UG
LZ12,1840,Itacorubi,HN
DC57,2505,Kudus,IT
DK44,4710,Inazawa,MM
RC96,4208,Shancheng,RU
QH03,3815,Krouna,PL
RZ75,4912,Suyang,BR
RK55,2738,Budva,HR
YN82,3469,Tegalrejo,HN
DW74,3189,Umbuldamar,VE
AY13,1487,Qukuhu,YE
WP86,5355,Higuerote,MD
WK76,2357,Baishuiyang,IN
VE71,2125,Sotnikovskoye,VE
MT35,3259,Talisay,NZ
SM51,3469,Tegalrejo,HN
KJ07,4875,Dobdoban,TH
RB11,4015,Panawuan,BR
QD08,3423,Balayan,PL
YX60,3102,Svatava,VN
MT15,5024,Rambatan,AU
SN99,1311,Plovdiv,PH
IF72,1544,Hujigou,ID
OJ93,4771,Palhais,YE
FD70,3627,Gaotuo,MQ
LD23,4933,Ouidah,VE
MI87,5007,Tocopilla,AR
RI23,2064,Yartsevo,HN
IW48,2584,Talisayan,AU
QY10,1135,Muarabadak,SY
VD80,3438,Gitega,GR
SZ54,4140,Lijia,HN
PO95,3037,Mozhga,IT
XA98,1946,Lospalos,BR
UZ07,3261,Orikum,MD
BE30,5363,Pailin,SY
PW03,4710,Inazawa,MM
RA68,2296,Cambebba,HR
FQ31,1191,Buturlinovka,NZ
KK01,2949,Alvito,AU
MD83,5061,Banjarwaru,VN
RD13,3767,Kostinbrod,MM
UO97,3051,Paipu,IN
JH46,5222,Hisya,VN
JX85,2026,Yukuhashi,FR
IP61,2528,Beijiang,TH
DB11,3211,Lagayan,MX
EZ15,2516,Danzi,AM
NV83,3180,Portela,UK
RV55,5257,Gudang,VN
IK45,3705,Toyooka,PH
MU89,5017,Yesan,TN
BV99,3035,Longmiao,FI
JY96,4388,Matoupu,KW
QN60,3740,Baranovichi,AR
KW55,4218,Bibrka,PL
HC63,3397,Ngudu,MD
RH23,3947,Muli,VN
DE69,3327,Jingxi,SE
AR66,2824,Panambi,HN
UR75,1220,Kebon,HN
WB71,3816,Talibura,FI
KW27,1168,Arteni,KW
YQ91,2235,Manyana,NG
KC24,1421,Panyarang,BY
EU24,3270,Tangzhuang,TR
YO37,3278,Pingxiang,PK
SV94,3451,Liloan,PK
SH48,1271,Smolenka,US
EH41,4942,Independencia,PL
LU02,2522,Yuecheng,MQ
HE98,4266,Gununglarang,UK
ZR97,5037,Langchi,TN
PN09,4054,Shishi,IN
WA74,2687,Kiarajangkung,AR
LC68,1273,Mandala,PK
ME41,5205,Yelizovo,NG
KA57,3295,Boyarka,PL
CL22,4145,Mobai,MQ
KG47,4797,Dete,VE
BO35,3711,Retenggoma,MX
PB02,3043,Quanzhou,NL
GN61,3298,Cisek,MX
MR76,1205,Chengshan,BY
PJ53,3109,Beishidian,AR
QR90,2529,Bern,UA
KL13,3267,Huangsha,CN
GA59,4473,Paprotnia,CD
ZC95,4771,Palhais,YE
SC17,3274,Kakanj,KW
RV29,1521,Guling,UK
FW55,2026,Yukuhashi,FR
EH85,4154,Kuybyshev,NG
MF74,5223,Majiao,SY
UM45,5412,Shuren,AM
MY30,2901,Thaton,HN
LT43,3173,Granja,CU
XD63,3013,Cibeureum,NL
MN43,3044,Tabatinga,AU
QU34,2724,Gotputuk,SE
OC70,5007,Tocopilla,AR
IO51,1866,Kambia,AR
DD61,4241,Aimin,SE
CL07,4993,Waiwejak,TR
CS24,2135,Heiiyugou,MM
XI59,2313,Bilbays,MN
NM41,2079,Petropavlovsk,MX
QJ26,3198,Semanding,CA
OJ15,2416,Atlanta,KW
JS32,5150,Baizhu,CA
VP95,4252,Angasmarca,TN
FW72,5223,Majiao,SY
EP39,4815,Anding,UA
ND16,5208,Xiongzhou,UK
FS30,1578,Uzgen,PH
DD49,2591,Novocherkassk,MQ
EQ81,5388,Corgo,PK
KD38,1168,Arteni,KW
AH83,4479,Nekrasovka,HN
WZ34,5327,Huasta,UK
WE79,4239,Rashaant,AR
VN80,1973,Rawasan,UG
NR04,3234,Shilipu,NZ
UK00,3013,Cibeureum,NL
UU73,4935,Kawungsari,NZ
LO14,1369,Daguma,AR
FQ54,2444,Coutada,PE
AY09,2628,Sondo,CU
IU18,3278,Pingxiang,PK
FE87,2861,Senduro,ID
EO01,1161,Drammen,US
AF41,4946,Pasar,SY
ET63,3611,Pineleng,KZ
VD87,5114,Labruge,CI
MF53,3345,Qiaotou,LT
CP96,3446,Ladoeiro,CD
JF87,3967,Xigaoshan,GR
JV48,2664,Jacksonville,CU
JP89,3650,Giade,AM
GN59,5311,Calaya,PL
IG60,4942,Independencia,PL
JF17,2684,Fuming,AU
SB22,4140,Lijia,HN
UL88,5075,Combita,IN
WZ47,3188,Madagali,CI
KH12,2191,Strzelce,HR
FZ38,3642,Atibaia,CA
UV28,4715,Kotabumi,MD
TH99,1620,Protvino,NL
GS43,4992,Ornontowice,VE
RE22,1608,Guayaquil,PL
LZ28,3412,Libacao,TZ
RE83,2325,Guamal,HR
BC60,4192,Amga,YE
FT61,3062,Mizunami,GR
JB82,1798,Berezivka,NL
UR55,2869,Vuokatti,MM
ZJ88,2406,Sanquan,KW
RU45,3211,Lagayan,MX
KD00,3602,Orlovat,IT
YB98,3829,Lityn,US
CI69,3423,Balayan,PL
WG52,1755,Yanzhou,CU
IJ98,5208,Xiongzhou,UK
SY18,1343,Tambo,HR
HB97,2495,Changjiang,RU
AK26,2088,Gaplokan,VN
SE77,3854,Malikisi,MG
OC49,2042,Jiaqiao,TN
EW65,3189,Umbuldamar,VE
EQ94,4987,Pulo,IN
CK23,4351,Kitcharao,CN
ZX57,4479,Nekrasovka,HN
YX70,4168,Petong,IT
RE99,2731,Atami,PL
GX45,4754,Heredia,MN
LZ42,5069,Limoges,UY
CO32,3051,Paipu,IN
IP53,1335,Bianba,MN
VD70,1450,Sale,MX
OS70,2463,Dordrecht,MD
MN67,1975,Jining,UY
HN13,4251,Pajannangger,UG
ZI57,1965,Pumaqangtang,NZ
SM09,4378,Sacramento,TN
FH62,4359,Shuguang,PK
QX85,3894,Jinja,VE
GM76,2437,Weixin,FI
OT89,3226,Bokaa,UK
QV82,3678,Brondong,RU
FR89,1819,Alakak,NL
BC47,5114,Labruge,CI
VI53,5335,Kemang,PL
PC25,4072,Kyurdarmir,IN
XP75,3254,Xinmen,TZ
UQ07,1428,Longford,YE
JR90,1513,Taclobo,KW
WW77,2759,Hoolt,MM
HZ55,4779,Cermee,GR
IL08,2493,Pilaya,MX
SY73,3079,Bafoussam,PH
SL78,3035,Longmiao,FI
XE91,1673,Boyu,TH
FG38,3618,Asia,MM
QR82,5201,Isulan,UG
JE54,2684,Fuming,AU
GJ06,5183,Zhongxing,MQ
NF01,4577,Pyatigorskiy,AR
SC78,3049,Kudang,PH
NK17,1560,Gorzkowice,PK
MP06,3806,Uyskoye,MN
QO69,2798,Siquirres,GR
CH36,2898,Nyandoma,FI
WM72,4092,Guadalupe,UK
VT52,3178,Kalnibolotskaya,HN
NG83,3184,Cifuentes,MK
LJ50,1361,Ylitornio,TN
TB91,4124,Maoya,AR
YU52,3184,Cifuentes,MK
YO64,3841,Jaworzynka,IT
PA47,4518,Ekazhevo,CU
ZR91,3397,Ngudu,MD
MQ57,3909,Bungu,TR
BX67,4661,Youdian,MD
LL83,1979,Abhar,GR
MX14,2122,Guantang,KZ
PB23,1981,Vlachovice,KZ
MH74,4428,Jiushe,KZ
WD16,3439,Wonodadi,NL
IZ49,1191,Buturlinovka,NZ
HG72,3027,Pribrezhnyy,MX
WP25,5365,Heihe,FR
BX48,3595,Madrid,PK
DR91,3051,Paipu,IN
DH27,2392,Xushan,BR
ZD13,2454,Arras,PL
LK72,2708,Nangkasari,VN
KX38,4058,Pszczew,MK
JZ28,2013,Vendargues,PL
OA59,4243,Mentaras,FI
IC22,1946,Lospalos,BR
LE54,1539,Svilajnac,AR
PY90,3601,Otavalo,SE
IM66,1513,Taclobo,KW
VU93,1406,Kudymkar,ID
HA15,3894,Jinja,VE
HG73,4121,Dikirnis,MX
JK91,4807,Andalan,RU
FP21,5250,Futian,US
WP32,2111,Scottsdale,PH
UK73,1255,Langgen,CN
LG04,5322,Ariana,CU
GM50,5267,Nivnice,CU
SE39,3178,Kalnibolotskaya,HN
PG82,2397,Durham,VE
ID28,3468,Alavus,NZ
DL90,5262,Adjumani,MD
RY89,5065,Gjinkar,US
WL08,1190,Baiyin,FI
OE85,4241,Aimin,SE
SW22,3639,Longcun,FR
SN76,4391,Hagerstown,TR
QM27,4183,Filipstad,ID
NR66,4992,Ornontowice,VE
VX92,1399,Dushanbe,NZ
HO83,1480,Whitwell,PE
HX74,1202,Viedma,AU
RK62,1340,Tarkwa,MQ
JN61,5233,Jubao,LT
GM21,2667,Nazarje,UY
GG45,3225,Poitiers,CN
MZ77,1852,Dingli,ID
IV00,5137,Tambaksari,GR
FY96,4192,Amga,YE
LL79,2347,Dongling,MG
UX53,1261,Lubochnia,PK
SL98,4992,Ornontowice,VE
NV85,3565,Chicago,UK
QZ41,3395,Bicaj,FI
LC53,3962,Wonorejo,UY
SD43,4124,Maoya,AR
OI59,3998,Xiaqiao,US
OD09,2513,Caozhen,SY
WO18,2645,Cilated,NZ
GW65,4494,Zhengwan,ID
LU28,4289,Vyksa,TR
BC77,2302,Hougong,BR
SM19,2390,Tabou,IN
FC03,4560,Oslo,ID
SQ95,2826,Changliu,TR
PP50,2550,Primorsk,UA
RG82,1483,Zhufo,PE
PG25,1975,Jining,UY
SB64,3368,Jaro,YE
WU71,2885,Dongbian,GR
ET00,4677,Hengling,UK
NE39,4551,Chengdu,AR
RD20,4871,Buenavista,ID
SM92,1899,Obolensk,PK
TX99,2522,Yuecheng,MQ
HN98,2054,Tashanta,VN
BV40,4138,Coutances,PE
EV45,2315,Pleshanovo,VN
DA93,3446,Ladoeiro,CD
QP39,1915,Avanca,VN
BD84,1143,Miramar,KW
YO46,3013,Cibeureum,NL
OK66,4388,Matoupu,KW
QS16,1886,Simpang,YE
AQ41,4622,Wotan,FR
FH64,2112,Kiten,NL
VV11,4387,Lazdijai,MM
SG91,4140,Lijia,HN
WT73,3673,Cradock,MG
PH74,4968,Yingshouyingzi,FI
LM19,4985,Povarovo,UA
UT95,3317,Tabalong,MM
CH44,4822,Timaru,LT
OA60,3072,Detroit,KW
SU06,3896,Gabi,VN
XF38,1394,Shanxi,TR
JJ52,4424,Musawa,GR
PS91,4246,Jingmen,TR
EX67,3708,Imatra,MN
AB03,4421,Xinghua,MK
QX86,3967,Xigaoshan,GR
RE88,1332,Cimanggu,IT
KY77,2155,Sanli,VE
PJ89,3029,Kotauneng,BY
XS48,2969,Hvar,LT
TQ62,1273,Mandala,PK
GZ71,1975,Jining,UY
ZN26,1247,Lafia,HN
CA40,3226,Bokaa,UK
NK56,4355,Uba,KW
SH31,1366,Svetlyy,BY
NZ30,1643,Obikiik,UK
UV74,4172,Laibin,BR
BS39,4220,Gaoping,SE
JN31,5271,Taytayan,BR
ZY68,5327,Huasta,UK
BF85,2958,Xinyu,ID
MG13,2450,Trstenik,TZ
DV25,4853,Angono,MK
SM03,4100,Yehud,FI
PT72,1311,Plovdiv,PH
HH72,1509,Sidomulyo,CI
WF67,2529,Bern,UA
YP42,2779,Dolores,AM
YT78,2459,Balogo,SY
AV13,1421,Panyarang,BY
WE26,1539,Svilajnac,AR
PZ39,1344,Erpeldange,NZ
QG52,2723,Agboville,BR
WV72,4993,Waiwejak,TR
VX75,3277,Liqiao,TH
CH87,4988,Aston,PK
RE40,4765,Sanqiao,MN
YV28,3594,Samir,MM
SE71,5267,Nivnice,CU
QC43,4822,Timaru,LT
PZ69,2171,Ambovombe,NZ
HE59,3678,Brondong,RU
NT57,4913,Pengandonan,KZ
RO40,3561,Yunxi,BR
AJ76,2351,Siguqiao,UG
CY50,1772,Lingtou,KW
XZ75,4807,Andalan,RU
DI71,3090,Phoenix,HR
NQ07,2919,Sancha,ID
BN08,2956,Palermo,PE
VA05,2485,Gniechowice,BR
OV57,3115,Garnich,VE
XM52,2591,Novocherkassk,MQ
ER77,4085,Zhapu,BR
AN79,5083,Haodian,MN
TV61,3241,Vavuniya,NG
XQ37,3956,Pittsburgh,AR
CX65,4777,Tyarlevo,SE
UC56,2016,Montilla,CI
SA34,4252,Angasmarca,TN
HT93,4168,Petong,IT
RM84,4875,Dobdoban,TH
BZ72,1811,Babakan,CI
QK01,3089,Ubrub,MQ
IF08,2603,Tanahbeureum,CN
ZM51,1666,Pacar,AR
EN00,3247,Caen,TZ
OH86,1190,Baiyin,FI
JR26,1848,Stuttgart,CU
IU16,4224,Maungatapere,FI
MQ00,5257,Gudang,VN
OH07,1566,Falun,TR
PF43,5206,Charlestown,PL
ZU50,5007,Tocopilla,AR
TO47,3899,Ilembula,UA
